ZORKIY-2M 1             
1 57177U 23091M   26155.71066936  .00008481  00000+0  38751-3 0  9996
2 57177  97.5092 214.7167 0014147 154.6355 205.5577 15.20732658162105
CUBESX-HSE 3 (RS42S)    
1 57178U 23091N   26155.23321483  .00015408  00000+0  51751-3 0  9997
2 57178  97.5093 220.6597 0012044 134.7257 225.4967 15.30872052162449
MONITOR-3 (RS58S)       
1 57180U 23091Q   26155.16389975  .00011994  00000+0  44641-3 0  9998
2 57180  97.5085 218.5166 0012863 141.1958 219.0208 15.27565922162303
MONITOR-4 (RS57S)       
1 57182U 23091S   26155.14373027  .00012486  00000+0  46321-3 0  9993
2 57182  97.5078 218.4669 0012804 141.6583 218.5569 15.27663555162303
MONITOR-2 (RS39S)       
1 57184U 23091U   26155.20231680  .00005604  00000+0  27231-3 0  9993
2 57184  97.5075 213.5700 0012065 151.3600 208.8300 15.18783513161986
SVYATOBOR 1 (RS60S)     
1 57187U 23091X   26155.21130855  .00010113  00000+0  39089-3 0  9994
2 57187  97.5090 218.9584 0010712 133.6184 226.5944 15.26383361162339
HORS 1                  
1 57188U 23091Y   26155.72214176  .00010842  00000+0  41749-3 0  9995
2 57188  97.5068 219.2361 0010234 131.3637 228.8483 15.26494333162413
VIZARD-METEO (RS38S)    
1 57189U 23091Z   26155.11681252  .00018692  00000+0  54136-3 0  9997
2 57189  97.5093 224.3441 0008752 116.2926 243.9218 15.35589021162685
SITRO-AIS 6 (CHIRKIN)   
1 57192U 23091AC  26155.71947160  .00011774  00000+0  46379-3 0  9994
2 57192  97.5069 218.6875 0012760 145.1634 215.0441 15.25686416162380
SITRO-AIS 8 (ANOKHIN)   
1 57193U 23091AD  26155.21955926  .00016586  00000+0  54161-3 0  9993
2 57193  97.5058 220.5348 0011704 139.8166 220.3943 15.31768845162462
SITRO-AIS 7 (FARTUSHNIY)
1 57194U 23091AE  26155.72009250  .00011572  00000+0  46013-3 0  9997
2 57194  97.5067 218.5194 0012599 146.0998 214.1048 15.25380495162376
AVION KALUGA 650        
1 57195U 23091AF  26155.72237929  .00006976  00000+0  32448-3 0  9993
2 57195  97.5091 215.3501 0011340 147.5402 212.6532 15.20213870162132
HORS 2                  
1 57196U 23091AG  26155.22928741  .00015306  00000+0  50397-3 0  9998
2 57196  97.5090 222.0853 0009532 126.1096 234.1029 15.31541536162549
A-SEANSAT-PG1           
1 57197U 23091AH  26155.24859823  .00020753  00000+0  58361-3 0  9996
2 57197  97.5082 224.5583 0008626 122.8984 237.3090 15.36490364162720
SITRO-AIS 10 (BURDAEV)  
1 57199U 23091AK  26155.24002859  .00022502  00000+0  60067-3 0  9997
2 57199  97.5081 225.4777 0007992 118.0781 242.1273 15.38097459162775
SITRO-AIS 9 (SHCHUKIN)  
1 57201U 23091AM  26155.26238543  .00022310  00000+0  60467-3 0  9995
2 57201  97.5080 225.2404 0008208 118.1889 242.0185 15.37627915162769
UTMN 2 (RS27S)          
1 57203U 23091AP  26155.71521566  .00014578  00000+0  47735-3 0  9997
2 57203  97.5088 222.7663 0009464 120.7007 239.5168 15.31732478162637
SITRO-AIS 12 (SMIRENNIY)
1 57204U 23091AQ  26155.25544230  .00021792  00000+0  58532-3 0  9993
2 57204  97.5094 225.6926 0007849 113.2192 246.9880 15.37915387162783
SITRO-AIS 11 (SHEFFER)  
1 57208U 23091AU  26155.27238560  .00023268  00000+0  61639-3 0  9997
2 57208  97.5091 225.9484 0007781 113.0378 247.1688 15.38328724162801
H2SAT (HEINRICH HERTZ)  
1 57213U 23093A   26155.13748118  .00000014  00000+0  00000+0 0  9990
2 57213   0.0448 123.4904 0000974 332.0680 207.2004  1.00272490 10787
KUZGTU 1 (RS47S)        
1 57217U 23091AV  26155.21298096  .00013972  00000+0  48912-3 0  9991
2 57217  97.5065 219.5637 0012171 138.0553 222.1622 15.29547520162394
QIANKUN-1               
1 57422U 23103B   26151.67722356  .00022767  18877-5  28012-4 0  9999
2 57422  96.1558 197.6671 0024054 142.5816 217.7151 16.07626689164641
FENGYUN 3F              
1 57490U 23111A   26155.85418009  .00000074  00000+0  55191-4 0  9992
2 57490  98.6837 226.0924 0001569 102.3129 257.8223 14.19936984147119
HJ-2F                   
1 57519U 23116A   26155.82854295  .00009669  00000+0  42398-3 0  9990
2 57519  97.3844 161.2642 0010578  87.6546 272.5901 15.22136888156870
XRISM                   
1 57800U 23137A   26153.27519307  .00005615  00000+0  31044-3 0  9998
2 57800  31.0020  96.1840 0007694 175.1081 184.9634 15.12327778150605
METEOR-M2 4             
1 59051U 24039A   26155.87357094  .00000024  00000+0  30293-4 0  9996
2 59051  98.7006 115.3268 0006562 196.8514 163.2447 14.22428250117513
GRBBETA                 
1 60237U 24128C   26155.74246985  .00004952  00000+0  34080-3 0  9996
2 60237  61.9904 259.9266 0042354 132.1755 228.2947 15.06546882104396
TRANSPORTER-11 OBJECT A 
1 60468U 24149A   26155.09704065  .00009643  00000+0  30792-3 0  9999
2 60468  97.3731 235.0694 0001737 255.7782 104.3267 15.32684040100051
WARATAH SEED-1          
1 60469U 24149B   26155.01479025  .00014804  00000+0  42975-3 0  9998
2 60469  97.3686 235.5807 0000334 231.4383 128.6830 15.35600421100095
